STARLINK-4335           
1 53215U 22084AC  26076.60153489  .00000376  00000+0  30238-4 0  9994
2 53215  97.6022 139.0235 0000907 148.7569 211.3712 15.05647539201097
STARLINK-4376           
1 53216U 22084AD  26076.47755179  .00000273  00000+0  25764-4 0  9998
2 53216  97.6026 137.8251 0002126 194.7436 165.3727 15.01270552200484
STARLINK-4384           
1 53218U 22084AF  26076.18063322  .00000845  00000+0  62756-4 0  9997
2 53218  97.6045 138.6693 0000750  99.7249 260.4063 15.05659433201038
STARLINK-4373           
1 53219U 22084AG  26076.40769508  .00000752  00000+0  56355-4 0  9997
2 53219  97.6019 138.8028 0001509 139.5866 220.5473 15.05647593200546
STARLINK-4363           
1 53220U 22084AH  26076.40349670  .00000476  00000+0  41621-4 0  9996
2 53220  97.6016 137.7510 0002684 165.4915 194.6387 15.01257726200992
STARLINK-4377           
1 53221U 22084AJ  26076.59555058  .00054549  00000+0  41700-2 0  9992
2 53221  97.6034 137.9418 0001788 144.0597 216.0748 15.01704086200508
STARLINK-4356           
1 53224U 22084AM  26076.59975018  .00000777  00000+0  65060-4 0  9998
2 53224  97.6024 137.9436 0003377 151.3483 208.7927 15.01262677200503
STARLINK-4358           
1 53225U 22084AN  26076.74275368  .00001017  00000+0  74654-4 0  9994
2 53225  97.6026 139.1100 0000729 102.8417 257.2891 15.05649313200592
STARLINK-4359           
1 53226U 22084AP  26076.58863948  .00000693  00000+0  58521-4 0  9998
2 53226  97.6058 137.9525 0001333 170.6993 189.4256 15.01261415200500
STARLINK-4366           
1 53227U 22084AQ  26076.12525286  .00004819  00000+0  33817-3 0  9993
2 53227  97.6032 138.5219 0000622  64.3440 295.7851 15.05624976200507
STARLINK-4365           
1 53228U 22084AR  26076.83335647 -.00052006  00000+0 -37029-2 0  9993
2 53228  97.6043 138.1998 0001457  71.2667 208.8052 15.04869960  5802
STARLINK-4367           
1 53229U 22084AS  26076.59599250  .00000718  00000+0  53930-4 0  9991
2 53229  97.6034 138.9896 0000701  93.7844 266.3463 15.05651360200575
STARLINK-4364           
1 53230U 22084AT  26076.64030421  .00000497  00000+0  38666-4 0  9992
2 53230  97.6044 139.0888 0000575 114.7423 245.3864 15.05646179200582
STARLINK-4370           
1 53231U 22084AU  26076.45200160  .00000755  00000+0  56516-4 0  9992
2 53231  97.6023 138.8643 0000977 134.6571 225.4736 15.05645056200554
STARLINK-4371           
1 53232U 22084AV  26076.45163548  .00000792  00000+0  66187-4 0  9997
2 53232  97.6048 137.8091 0001480 112.9941 247.1440 15.01265426200488
STARLINK-4372           
1 53233U 22084AW  26076.57965410 -.00001200  00000+0 -88952-4 0  9990
2 53233  97.5991 137.9424 0002460  80.6795 279.4707 15.01239441200508
