[{"OBJECT_NAME":"STARLINK-4335","OBJECT_ID":"2022-084AC","EPOCH":"2026-03-17T14:26:12.614496","MEAN_MOTION":15.05647539,"ECCENTRICITY":9.071e-5,"INCLINATION":97.6022,"RA_OF_ASC_NODE":139.0235,"ARG_OF_PERICENTER":148.7569,"MEAN_ANOMALY":211.3712,"EPHEMERIS_TYPE":0,"CLASSIFICATION_TYPE":"U","NORAD_CAT_ID":53215,"ELEMENT_SET_NO":999,"REV_AT_EPOCH":20109,"BSTAR":3.0238277e-5,"MEAN_MOTION_DOT":3.76e-6,"MEAN_MOTION_DDOT":0},{"OBJECT_NAME":"STARLINK-4376","OBJECT_ID":"2022-084AD","EPOCH":"2026-03-17T11:27:40.474656","MEAN_MOTION":15.01270552,"ECCENTRICITY":0.00021264,"INCLINATION":97.6026,"RA_OF_ASC_NODE":137.8251,"ARG_OF_PERICENTER":194.7436,"MEAN_ANOMALY":165.3727,"EPHEMERIS_TYPE":0,"CLASSIFICATION_TYPE":"U","NORAD_CAT_ID":53216,"ELEMENT_SET_NO":999,"REV_AT_EPOCH":20048,"BSTAR":2.5763546e-5,"MEAN_MOTION_DOT":2.73e-6,"MEAN_MOTION_DDOT":0},{"OBJECT_NAME":"STARLINK-4384","OBJECT_ID":"2022-084AF","EPOCH":"2026-03-17T04:20:06.710208","MEAN_MOTION":15.05659433,"ECCENTRICITY":7.5e-5,"INCLINATION":97.6045,"RA_OF_ASC_NODE":138.6693,"ARG_OF_PERICENTER":99.7249,"MEAN_ANOMALY":260.4063,"EPHEMERIS_TYPE":0,"CLASSIFICATION_TYPE":"U","NORAD_CAT_ID":53218,"ELEMENT_SET_NO":999,"REV_AT_EPOCH":20103,"BSTAR":6.2756234e-5,"MEAN_MOTION_DOT":8.45e-6,"MEAN_MOTION_DDOT":0},{"OBJECT_NAME":"STARLINK-4373","OBJECT_ID":"2022-084AG","EPOCH":"2026-03-17T09:47:04.854912","MEAN_MOTION":15.05647593,"ECCENTRICITY":0.00015096,"INCLINATION":97.6019,"RA_OF_ASC_NODE":138.8028,"ARG_OF_PERICENTER":139.5866,"MEAN_ANOMALY":220.5473,"EPHEMERIS_TYPE":0,"CLASSIFICATION_TYPE":"U","NORAD_CAT_ID":53219,"ELEMENT_SET_NO":999,"REV_AT_EPOCH":20054,"BSTAR":5.6355378e-5,"MEAN_MOTION_DOT":7.52e-6,"MEAN_MOTION_DDOT":0},{"OBJECT_NAME":"STARLINK-4363","OBJECT_ID":"2022-084AH","EPOCH":"2026-03-17T09:41:02.114880","MEAN_MOTION":15.01257726,"ECCENTRICITY":0.00026847,"INCLINATION":97.6016,"RA_OF_ASC_NODE":137.751,"ARG_OF_PERICENTER":165.4915,"MEAN_ANOMALY":194.6387,"EPHEMERIS_TYPE":0,"CLASSIFICATION_TYPE":"U","NORAD_CAT_ID":53220,"ELEMENT_SET_NO":999,"REV_AT_EPOCH":20099,"BSTAR":4.1620794e-5,"MEAN_MOTION_DOT":4.76e-6,"MEAN_MOTION_DDOT":0},{"OBJECT_NAME":"STARLINK-4377","OBJECT_ID":"2022-084AJ","EPOCH":"2026-03-17T14:17:35.570112","MEAN_MOTION":15.01704086,"ECCENTRICITY":0.00017883,"INCLINATION":97.6034,"RA_OF_ASC_NODE":137.9418,"ARG_OF_PERICENTER":144.0597,"MEAN_ANOMALY":216.0748,"EPHEMERIS_TYPE":0,"CLASSIFICATION_TYPE":"U","NORAD_CAT_ID":53221,"ELEMENT_SET_NO":999,"REV_AT_EPOCH":20050,"BSTAR":0.004169964,"MEAN_MOTION_DOT":0.00054549,"MEAN_MOTION_DDOT":0},{"OBJECT_NAME":"STARLINK-4356","OBJECT_ID":"2022-084AM","EPOCH":"2026-03-17T14:23:38.415552","MEAN_MOTION":15.01262677,"ECCENTRICITY":0.00033775,"INCLINATION":97.6024,"RA_OF_ASC_NODE":137.9436,"ARG_OF_PERICENTER":151.3483,"MEAN_ANOMALY":208.7927,"EPHEMERIS_TYPE":0,"CLASSIFICATION_TYPE":"U","NORAD_CAT_ID":53224,"ELEMENT_SET_NO":999,"REV_AT_EPOCH":20050,"BSTAR":6.5059903e-5,"MEAN_MOTION_DOT":7.77e-6,"MEAN_MOTION_DDOT":0},{"OBJECT_NAME":"STARLINK-4358","OBJECT_ID":"2022-084AN","EPOCH":"2026-03-17T17:49:33.917952","MEAN_MOTION":15.05649313,"ECCENTRICITY":7.29e-5,"INCLINATION":97.6026,"RA_OF_ASC_NODE":139.11,"ARG_OF_PERICENTER":102.8417,"MEAN_ANOMALY":257.2891,"EPHEMERIS_TYPE":0,"CLASSIFICATION_TYPE":"U","NORAD_CAT_ID":53225,"ELEMENT_SET_NO":999,"REV_AT_EPOCH":20059,"BSTAR":7.4654e-5,"MEAN_MOTION_DOT":1.017e-5,"MEAN_MOTION_DDOT":0},{"OBJECT_NAME":"STARLINK-4359","OBJECT_ID":"2022-084AP","EPOCH":"2026-03-17T14:07:38.451072","MEAN_MOTION":15.01261415,"ECCENTRICITY":0.00013337,"INCLINATION":97.6058,"RA_OF_ASC_NODE":137.9525,"ARG_OF_PERICENTER":170.6993,"MEAN_ANOMALY":189.4256,"EPHEMERIS_TYPE":0,"CLASSIFICATION_TYPE":"U","NORAD_CAT_ID":53226,"ELEMENT_SET_NO":999,"REV_AT_EPOCH":20050,"BSTAR":5.8520564e-5,"MEAN_MOTION_DOT":6.93e-6,"MEAN_MOTION_DDOT":0},{"OBJECT_NAME":"STARLINK-4366","OBJECT_ID":"2022-084AQ","EPOCH":"2026-03-17T03:00:21.847104","MEAN_MOTION":15.05624976,"ECCENTRICITY":6.227e-5,"INCLINATION":97.6032,"RA_OF_ASC_NODE":138.5219,"ARG_OF_PERICENTER":64.344,"MEAN_ANOMALY":295.7851,"EPHEMERIS_TYPE":0,"CLASSIFICATION_TYPE":"U","NORAD_CAT_ID":53227,"ELEMENT_SET_NO":999,"REV_AT_EPOCH":20050,"BSTAR":0.0003381675,"MEAN_MOTION_DOT":4.819e-5,"MEAN_MOTION_DDOT":0},{"OBJECT_NAME":"STARLINK-4365","OBJECT_ID":"2022-084AR","EPOCH":"2026-03-17T20:00:01.999008","MEAN_MOTION":15.0486996,"ECCENTRICITY":0.0001457,"INCLINATION":97.6043,"RA_OF_ASC_NODE":138.1998,"ARG_OF_PERICENTER":71.2667,"MEAN_ANOMALY":208.8052,"EPHEMERIS_TYPE":0,"CLASSIFICATION_TYPE":"U","NORAD_CAT_ID":53228,"ELEMENT_SET_NO":999,"REV_AT_EPOCH":580,"BSTAR":-0.0037029,"MEAN_MOTION_DOT":-0.00052006,"MEAN_MOTION_DDOT":0},{"OBJECT_NAME":"STARLINK-4367","OBJECT_ID":"2022-084AS","EPOCH":"2026-03-17T14:18:13.752000","MEAN_MOTION":15.0565136,"ECCENTRICITY":7.013e-5,"INCLINATION":97.6034,"RA_OF_ASC_NODE":138.9896,"ARG_OF_PERICENTER":93.7844,"MEAN_ANOMALY":266.3463,"EPHEMERIS_TYPE":0,"CLASSIFICATION_TYPE":"U","NORAD_CAT_ID":53229,"ELEMENT_SET_NO":999,"REV_AT_EPOCH":20057,"BSTAR":5.3930287e-5,"MEAN_MOTION_DOT":7.18e-6,"MEAN_MOTION_DDOT":0},{"OBJECT_NAME":"STARLINK-4364","OBJECT_ID":"2022-084AT","EPOCH":"2026-03-17T15:22:02.283744","MEAN_MOTION":15.05646179,"ECCENTRICITY":5.752e-5,"INCLINATION":97.6044,"RA_OF_ASC_NODE":139.0888,"ARG_OF_PERICENTER":114.7423,"MEAN_ANOMALY":245.3864,"EPHEMERIS_TYPE":0,"CLASSIFICATION_TYPE":"U","NORAD_CAT_ID":53230,"ELEMENT_SET_NO":999,"REV_AT_EPOCH":20058,"BSTAR":3.86658e-5,"MEAN_MOTION_DOT":4.97e-6,"MEAN_MOTION_DDOT":0},{"OBJECT_NAME":"STARLINK-4370","OBJECT_ID":"2022-084AU","EPOCH":"2026-03-17T10:50:52.938240","MEAN_MOTION":15.05645056,"ECCENTRICITY":9.775e-5,"INCLINATION":97.6023,"RA_OF_ASC_NODE":138.8643,"ARG_OF_PERICENTER":134.6571,"MEAN_ANOMALY":225.4736,"EPHEMERIS_TYPE":0,"CLASSIFICATION_TYPE":"U","NORAD_CAT_ID":53231,"ELEMENT_SET_NO":999,"REV_AT_EPOCH":20055,"BSTAR":5.6515787e-5,"MEAN_MOTION_DOT":7.55e-6,"MEAN_MOTION_DDOT":0},{"OBJECT_NAME":"STARLINK-4371","OBJECT_ID":"2022-084AV","EPOCH":"2026-03-17T10:50:21.305472","MEAN_MOTION":15.01265426,"ECCENTRICITY":0.00014802,"INCLINATION":97.6048,"RA_OF_ASC_NODE":137.8091,"ARG_OF_PERICENTER":112.9941,"MEAN_ANOMALY":247.144,"EPHEMERIS_TYPE":0,"CLASSIFICATION_TYPE":"U","NORAD_CAT_ID":53232,"ELEMENT_SET_NO":999,"REV_AT_EPOCH":20048,"BSTAR":6.6186885e-5,"MEAN_MOTION_DOT":7.92e-6,"MEAN_MOTION_DDOT":0},{"OBJECT_NAME":"STARLINK-4372","OBJECT_ID":"2022-084AW","EPOCH":"2026-03-17T13:54:42.114240","MEAN_MOTION":15.01239441,"ECCENTRICITY":0.00024606,"INCLINATION":97.5991,"RA_OF_ASC_NODE":137.9424,"ARG_OF_PERICENTER":80.6795,"MEAN_ANOMALY":279.4707,"EPHEMERIS_TYPE":0,"CLASSIFICATION_TYPE":"U","NORAD_CAT_ID":53233,"ELEMENT_SET_NO":999,"REV_AT_EPOCH":20050,"BSTAR":-8.8951599e-5,"MEAN_MOTION_DOT":-1.2e-5,"MEAN_MOTION_DDOT":0}]
